STARLINK-1559           
1 46077U 20055BC  26068.23360559  .00042685  00000+0  14779-2 0  9995
2 46077  53.0254  76.0659 0004229  33.9710 326.1559 15.29461733309518
STARLINK-34537          
1 64778U 25147Z   26068.71652418  .00028615  00000+0  97442-3 0  9997
2 64778  53.1565 219.7468 0000835  90.4465 269.6632 15.30203721 39101
